SL-14 R/B               
1 16792U 86046B   26032.70467054  .00000528  00000+0  58116-4 0  9994
2 16792  82.4825 114.1853 0022786 350.7656   9.3138 14.85553761121065
SL-14 R/B               
1 16882U 86055B   26032.84631465  .00000614  00000+0  67875-4 0  9996
2 16882  82.5229 160.3516 0020409  90.9022  24.7374 14.85601814114049
AJISAI (EGS)            
1 16908U 86061A   26032.90893567 -.00000112  00000+0 -10099-3 0  9992
2 16908  50.0065 203.3735 0011250 194.8782 280.8096 12.44515347463544
COSMOS 1812             
1 17295U 87003A   26032.95632728  .00204657  13996-4  64171-3 0  9995
2 17295  82.4783 236.0016 0000811  20.7335 339.3971 15.91361598138753
SL-14 R/B               
1 17567U 87024B   26032.75118787  .00000543  00000+0  59009-4 0  9992
2 17567  82.5298 126.5381 0018792  24.2897 335.9201 14.86095390 82791
COSMOS 1833             
1 17589U 87027A   26032.75762155  .00000134  00000+0  97429-4 0  9997
2 17589  70.9203  41.5362 0024769 262.3760  97.4548 14.13054487  5243
SL-16 R/B               
1 17590U 87027B   26032.97650638  .00000127  00000+0  86726-4 0  9995
2 17590  71.0047 351.7491 0005459 201.8868 158.2024 14.17163158 10289
SL-14 R/B               
1 17912U 87038B   26032.86236247  .00000584  00000+0  65019-4 0  9998
2 17912  82.5042 330.5489 0017740 284.6439  75.2810 14.85330448 73913
COSMOS 1844             
1 17973U 87041A   26032.68932384  .00000115  00000+0  84667-4 0  9994
2 17973  70.8981 110.1128 0028662  75.7974 284.6329 14.14535497998495
SL-14 R/B               
1 18153U 87055B   26032.98021050  .00000524  00000+0  57520-4 0  9994
2 18153  82.4986  22.6838 0021897 128.8395 231.4780 14.85583438 64632
COSMOS 1867             
1 18187U 87060A   26032.74194139 -.00000005  00000+0  35690-4 0  9999
2 18187  65.0104  47.3742 0014034 275.9806  83.9679 14.31496827 14797
SL-14 R/B               
1 18749U 88001B   26032.97308823  .00000454  00000+0  49659-4 0  9998
2 18749  82.5104 228.9560 0018082   1.4431 358.6834 14.85484173 36725
