CCSDS_OMM_VERS = 2.0
CREATION_DATE  = 
ORIGINATOR     = 

OBJECT_NAME    = SL-14 R/B
OBJECT_ID      = 1986-046B
CENTER_NAME    = EARTH
REF_FRAME      = TEME
TIME_SYSTEM    = UTC
MEAN_ELEMENT_THEORY = SGP/SGP4

EPOCH          = 2026-02-01T16:54:43.534656
MEAN_MOTION    = 14.85553761
ECCENTRICITY   = .00227862
INCLINATION    = 82.4825
RA_OF_ASC_NODE = 114.1853
ARG_OF_PERICENTER = 350.7656
MEAN_ANOMALY   = 9.3138

EPHEMERIS_TYPE = 0
CLASSIFICATION_TYPE = U
NORAD_CAT_ID   = 16792
ELEMENT_SET_NO = 999
REV_AT_EPOCH   = 12106
BSTAR          = .58116482E-4
MEAN_MOTION_DOT = .528E-5
MEAN_MOTION_DDOT = 0

CCSDS_OMM_VERS = 2.0
CREATION_DATE  = 
ORIGINATOR     = 

OBJECT_NAME    = SL-14 R/B
OBJECT_ID      = 1986-055B
CENTER_NAME    = EARTH
REF_FRAME      = TEME
TIME_SYSTEM    = UTC
MEAN_ELEMENT_THEORY = SGP/SGP4

EPOCH          = 2026-02-01T20:18:41.585760
MEAN_MOTION    = 14.85601814
ECCENTRICITY   = .00204094
INCLINATION    = 82.5229
RA_OF_ASC_NODE = 160.3516
ARG_OF_PERICENTER = 90.9022
MEAN_ANOMALY   = 24.7374

EPHEMERIS_TYPE = 0
CLASSIFICATION_TYPE = U
NORAD_CAT_ID   = 16882
ELEMENT_SET_NO = 999
REV_AT_EPOCH   = 11404
BSTAR          = .67874958E-4
MEAN_MOTION_DOT = .614E-5
MEAN_MOTION_DDOT = 0

CCSDS_OMM_VERS = 2.0
CREATION_DATE  = 
ORIGINATOR     = 

OBJECT_NAME    = AJISAI (EGS)
OBJECT_ID      = 1986-061A
CENTER_NAME    = EARTH
REF_FRAME      = TEME
TIME_SYSTEM    = UTC
MEAN_ELEMENT_THEORY = SGP/SGP4

EPOCH          = 2026-02-01T21:48:52.041888
MEAN_MOTION    = 12.44515347
ECCENTRICITY   = .00112503
INCLINATION    = 50.0065
RA_OF_ASC_NODE = 203.3735
ARG_OF_PERICENTER = 194.8782
MEAN_ANOMALY   = 280.8096

EPHEMERIS_TYPE = 0
CLASSIFICATION_TYPE = U
NORAD_CAT_ID   = 16908
ELEMENT_SET_NO = 999
REV_AT_EPOCH   = 46354
BSTAR          = -.10099231E-3
MEAN_MOTION_DOT = -.112E-5
MEAN_MOTION_DDOT = 0

CCSDS_OMM_VERS = 2.0
CREATION_DATE  = 
ORIGINATOR     = 

OBJECT_NAME    = COSMOS 1812
OBJECT_ID      = 1987-003A
CENTER_NAME    = EARTH
REF_FRAME      = TEME
TIME_SYSTEM    = UTC
MEAN_ELEMENT_THEORY = SGP/SGP4

EPOCH          = 2026-02-01T22:57:06.676992
MEAN_MOTION    = 15.91361598
ECCENTRICITY   = .0000811
INCLINATION    = 82.4783
RA_OF_ASC_NODE = 236.0016
ARG_OF_PERICENTER = 20.7335
MEAN_ANOMALY   = 339.3971

EPHEMERIS_TYPE = 0
CLASSIFICATION_TYPE = U
NORAD_CAT_ID   = 17295
ELEMENT_SET_NO = 999
REV_AT_EPOCH   = 13875
BSTAR          = .64170764E-3
MEAN_MOTION_DOT = .204657E-2
MEAN_MOTION_DDOT = .13995993E-4

CCSDS_OMM_VERS = 2.0
CREATION_DATE  = 
ORIGINATOR     = 

OBJECT_NAME    = SL-14 R/B
OBJECT_ID      = 1987-024B
CENTER_NAME    = EARTH
REF_FRAME      = TEME
TIME_SYSTEM    = UTC
MEAN_ELEMENT_THEORY = SGP/SGP4

EPOCH          = 2026-02-01T18:01:42.631968
MEAN_MOTION    = 14.86095390
ECCENTRICITY   = .00187928
INCLINATION    = 82.5298
RA_OF_ASC_NODE = 126.5381
ARG_OF_PERICENTER = 24.2897
MEAN_ANOMALY   = 335.9201

EPHEMERIS_TYPE = 0
CLASSIFICATION_TYPE = U
NORAD_CAT_ID   = 17567
ELEMENT_SET_NO = 999
REV_AT_EPOCH   = 8279
BSTAR          = .59009108E-4
MEAN_MOTION_DOT = .543E-5
MEAN_MOTION_DDOT = 0

CCSDS_OMM_VERS = 2.0
CREATION_DATE  = 
ORIGINATOR     = 

OBJECT_NAME    = COSMOS 1833
OBJECT_ID      = 1987-027A
CENTER_NAME    = EARTH
REF_FRAME      = TEME
TIME_SYSTEM    = UTC
MEAN_ELEMENT_THEORY = SGP/SGP4

EPOCH          = 2026-02-01T18:10:58.501920
MEAN_MOTION    = 14.13054487
ECCENTRICITY   = .00247692
INCLINATION    = 70.9203
RA_OF_ASC_NODE = 41.5362
ARG_OF_PERICENTER = 262.3760
MEAN_ANOMALY   = 97.4548

EPHEMERIS_TYPE = 0
CLASSIFICATION_TYPE = U
NORAD_CAT_ID   = 17589
ELEMENT_SET_NO = 999
REV_AT_EPOCH   = 524
BSTAR          = .97429237E-4
MEAN_MOTION_DOT = .134E-5
MEAN_MOTION_DDOT = 0

CCSDS_OMM_VERS = 2.0
CREATION_DATE  = 
ORIGINATOR     = 

OBJECT_NAME    = SL-16 R/B
OBJECT_ID      = 1987-027B
CENTER_NAME    = EARTH
REF_FRAME      = TEME
TIME_SYSTEM    = UTC
MEAN_ELEMENT_THEORY = SGP/SGP4

EPOCH          = 2026-02-01T23:26:10.151232
MEAN_MOTION    = 14.17163158
ECCENTRICITY   = .0005459
INCLINATION    = 71.0047
RA_OF_ASC_NODE = 351.7491
ARG_OF_PERICENTER = 201.8868
MEAN_ANOMALY   = 158.2024

EPHEMERIS_TYPE = 0
CLASSIFICATION_TYPE = U
NORAD_CAT_ID   = 17590
ELEMENT_SET_NO = 999
REV_AT_EPOCH   = 1028
BSTAR          = .86725915E-4
MEAN_MOTION_DOT = .127E-5
MEAN_MOTION_DDOT = 0

CCSDS_OMM_VERS = 2.0
CREATION_DATE  = 
ORIGINATOR     = 

OBJECT_NAME    = SL-14 R/B
OBJECT_ID      = 1987-038B
CENTER_NAME    = EARTH
REF_FRAME      = TEME
TIME_SYSTEM    = UTC
MEAN_ELEMENT_THEORY = SGP/SGP4

EPOCH          = 2026-02-01T20:41:48.117408
MEAN_MOTION    = 14.85330448
ECCENTRICITY   = .00177407
INCLINATION    = 82.5042
RA_OF_ASC_NODE = 330.5489
ARG_OF_PERICENTER = 284.6439
MEAN_ANOMALY   = 75.2810

EPHEMERIS_TYPE = 0
CLASSIFICATION_TYPE = U
NORAD_CAT_ID   = 17912
ELEMENT_SET_NO = 999
REV_AT_EPOCH   = 7391
BSTAR          = .65018952E-4
MEAN_MOTION_DOT = .584E-5
MEAN_MOTION_DDOT = 0

CCSDS_OMM_VERS = 2.0
CREATION_DATE  = 
ORIGINATOR     = 

OBJECT_NAME    = COSMOS 1844
OBJECT_ID      = 1987-041A
CENTER_NAME    = EARTH
REF_FRAME      = TEME
TIME_SYSTEM    = UTC
MEAN_ELEMENT_THEORY = SGP/SGP4

EPOCH          = 2026-02-01T16:32:37.579776
MEAN_MOTION    = 14.14535497
ECCENTRICITY   = .00286621
INCLINATION    = 70.8981
RA_OF_ASC_NODE = 110.1128
ARG_OF_PERICENTER = 75.7974
MEAN_ANOMALY   = 284.6329

EPHEMERIS_TYPE = 0
CLASSIFICATION_TYPE = U
NORAD_CAT_ID   = 17973
ELEMENT_SET_NO = 999
REV_AT_EPOCH   = 99849
BSTAR          = .84666878E-4
MEAN_MOTION_DOT = .115E-5
MEAN_MOTION_DDOT = 0

CCSDS_OMM_VERS = 2.0
CREATION_DATE  = 
ORIGINATOR     = 

OBJECT_NAME    = SL-14 R/B
OBJECT_ID      = 1987-055B
CENTER_NAME    = EARTH
REF_FRAME      = TEME
TIME_SYSTEM    = UTC
MEAN_ELEMENT_THEORY = SGP/SGP4

EPOCH          = 2026-02-01T23:31:30.187200
MEAN_MOTION    = 14.85583438
ECCENTRICITY   = .00218978
INCLINATION    = 82.4986
RA_OF_ASC_NODE = 22.6838
ARG_OF_PERICENTER = 128.8395
MEAN_ANOMALY   = 231.4780

EPHEMERIS_TYPE = 0
CLASSIFICATION_TYPE = U
NORAD_CAT_ID   = 18153
ELEMENT_SET_NO = 999
REV_AT_EPOCH   = 6463
BSTAR          = .57520013E-4
MEAN_MOTION_DOT = .524E-5
MEAN_MOTION_DDOT = 0

CCSDS_OMM_VERS = 2.0
CREATION_DATE  = 
ORIGINATOR     = 

OBJECT_NAME    = COSMOS 1867
OBJECT_ID      = 1987-060A
CENTER_NAME    = EARTH
REF_FRAME      = TEME
TIME_SYSTEM    = UTC
MEAN_ELEMENT_THEORY = SGP/SGP4

EPOCH          = 2026-02-01T17:48:23.736096
MEAN_MOTION    = 14.31496827
ECCENTRICITY   = .00140346
INCLINATION    = 65.0104
RA_OF_ASC_NODE = 47.3742
ARG_OF_PERICENTER = 275.9806
MEAN_ANOMALY   = 83.9679

EPHEMERIS_TYPE = 0
CLASSIFICATION_TYPE = U
NORAD_CAT_ID   = 18187
ELEMENT_SET_NO = 999
REV_AT_EPOCH   = 1479
BSTAR          = .35689707E-4
MEAN_MOTION_DOT = -.5E-7
MEAN_MOTION_DDOT = 0

CCSDS_OMM_VERS = 2.0
CREATION_DATE  = 
ORIGINATOR     = 

OBJECT_NAME    = SL-14 R/B
OBJECT_ID      = 1988-001B
CENTER_NAME    = EARTH
REF_FRAME      = TEME
TIME_SYSTEM    = UTC
MEAN_ELEMENT_THEORY = SGP/SGP4

EPOCH          = 2026-02-01T23:21:14.823072
MEAN_MOTION    = 14.85484173
ECCENTRICITY   = .00180824
INCLINATION    = 82.5104
RA_OF_ASC_NODE = 228.9560
ARG_OF_PERICENTER = 1.4431
MEAN_ANOMALY   = 358.6834

EPHEMERIS_TYPE = 0
CLASSIFICATION_TYPE = U
NORAD_CAT_ID   = 18749
ELEMENT_SET_NO = 999
REV_AT_EPOCH   = 3672
BSTAR          = .49659025E-4
MEAN_MOTION_DOT = .454E-5
MEAN_MOTION_DDOT = 0

